[{"OBJECT_NAME":"ONEWEB-0015","OBJECT_ID":"2024-188A","EPOCH":"2025-09-08T05:46:01.494912","MEAN_MOTION":13.11417096,"ECCENTRICITY":0.00023329,"INCLINATION":87.8779,"RA_OF_ASC_NODE":77.2763,"ARG_OF_PERICENTER":84.9419,"MEAN_ANOMALY":275.1975,"EPHEMERIS_TYPE":0,"CLASSIFICATION_TYPE":"U","NORAD_CAT_ID":61594,"ELEMENT_SET_NO":999,"REV_AT_EPOCH":4750,"BSTAR":-0.0016013045,"MEAN_MOTION_DOT":-5.55e-6,"MEAN_MOTION_DDOT":0},{"OBJECT_NAME":"ONEWEB-0687","OBJECT_ID":"2024-188B","EPOCH":"2025-09-08T04:53:31.662816","MEAN_MOTION":13.17650769,"ECCENTRICITY":0.00022754,"INCLINATION":87.903,"RA_OF_ASC_NODE":62.0047,"ARG_OF_PERICENTER":101.3121,"MEAN_ANOMALY":258.8267,"EPHEMERIS_TYPE":0,"CLASSIFICATION_TYPE":"U","NORAD_CAT_ID":61595,"ELEMENT_SET_NO":999,"REV_AT_EPOCH":4876,"BSTAR":7.23638e-7,"MEAN_MOTION_DOT":1.3e-7,"MEAN_MOTION_DDOT":0},{"OBJECT_NAME":"ONEWEB-0688","OBJECT_ID":"2024-188C","EPOCH":"2025-09-08T05:34:50.187648","MEAN_MOTION":13.17650497,"ECCENTRICITY":0.00030285,"INCLINATION":87.903,"RA_OF_ASC_NODE":61.9989,"ARG_OF_PERICENTER":84.6067,"MEAN_ANOMALY":275.541,"EPHEMERIS_TYPE":0,"CLASSIFICATION_TYPE":"U","NORAD_CAT_ID":61596,"ELEMENT_SET_NO":999,"REV_AT_EPOCH":4876,"BSTAR":-7.7315419e-5,"MEAN_MOTION_DOT":-1.7e-7,"MEAN_MOTION_DDOT":0},{"OBJECT_NAME":"ONEWEB-0689","OBJECT_ID":"2024-188D","EPOCH":"2025-09-08T01:05:15.807840","MEAN_MOTION":13.1141796,"ECCENTRICITY":0.0001835,"INCLINATION":87.8744,"RA_OF_ASC_NODE":77.271,"ARG_OF_PERICENTER":98.6594,"MEAN_ANOMALY":261.4742,"EPHEMERIS_TYPE":0,"CLASSIFICATION_TYPE":"U","NORAD_CAT_ID":61597,"ELEMENT_SET_NO":999,"REV_AT_EPOCH":4747,"BSTAR":0.0015274474,"MEAN_MOTION_DOT":5.54e-6,"MEAN_MOTION_DDOT":0},{"OBJECT_NAME":"ONEWEB-0690","OBJECT_ID":"2024-188E","EPOCH":"2025-09-08T04:59:38.938848","MEAN_MOTION":13.11416064,"ECCENTRICITY":0.00014306,"INCLINATION":87.8792,"RA_OF_ASC_NODE":77.2173,"ARG_OF_PERICENTER":63.5141,"MEAN_ANOMALY":296.6134,"EPHEMERIS_TYPE":0,"CLASSIFICATION_TYPE":"U","NORAD_CAT_ID":61598,"ELEMENT_SET_NO":999,"REV_AT_EPOCH":4767,"BSTAR":0.0013527739,"MEAN_MOTION_DOT":4.92e-6,"MEAN_MOTION_DDOT":0},{"OBJECT_NAME":"ONEWEB-0691","OBJECT_ID":"2024-188F","EPOCH":"2025-09-08T01:12:35.650368","MEAN_MOTION":13.11417053,"ECCENTRICITY":0.00020809,"INCLINATION":87.8704,"RA_OF_ASC_NODE":77.209,"ARG_OF_PERICENTER":83.3891,"MEAN_ANOMALY":276.7473,"EPHEMERIS_TYPE":0,"CLASSIFICATION_TYPE":"U","NORAD_CAT_ID":61599,"ELEMENT_SET_NO":999,"REV_AT_EPOCH":4750,"BSTAR":0.0013438528,"MEAN_MOTION_DOT":4.89e-6,"MEAN_MOTION_DDOT":0},{"OBJECT_NAME":"ONEWEB-0692","OBJECT_ID":"2024-188G","EPOCH":"2025-09-08T05:21:38.790432","MEAN_MOTION":13.11415913,"ECCENTRICITY":0.00012037,"INCLINATION":87.8767,"RA_OF_ASC_NODE":77.2794,"ARG_OF_PERICENTER":122.1423,"MEAN_ANOMALY":237.9822,"EPHEMERIS_TYPE":0,"CLASSIFICATION_TYPE":"U","NORAD_CAT_ID":61600,"ELEMENT_SET_NO":999,"REV_AT_EPOCH":4751,"BSTAR":-0.00024386887,"MEAN_MOTION_DOT":-7.4e-7,"MEAN_MOTION_DDOT":0},{"OBJECT_NAME":"ONEWEB-0693","OBJECT_ID":"2024-188H","EPOCH":"2025-09-08T04:02:29.671872","MEAN_MOTION":13.17647619,"ECCENTRICITY":0.00017819,"INCLINATION":87.9034,"RA_OF_ASC_NODE":62.0301,"ARG_OF_PERICENTER":62.1747,"MEAN_ANOMALY":297.9565,"EPHEMERIS_TYPE":0,"CLASSIFICATION_TYPE":"U","NORAD_CAT_ID":61601,"ELEMENT_SET_NO":999,"REV_AT_EPOCH":4874,"BSTAR":7.0286877e-5,"MEAN_MOTION_DOT":4.0e-7,"MEAN_MOTION_DDOT":0},{"OBJECT_NAME":"ONEWEB-0695","OBJECT_ID":"2024-188J","EPOCH":"2025-09-08T01:07:41.663136","MEAN_MOTION":13.11415754,"ECCENTRICITY":0.00016927,"INCLINATION":87.8771,"RA_OF_ASC_NODE":77.3016,"ARG_OF_PERICENTER":107.7255,"MEAN_ANOMALY":252.4058,"EPHEMERIS_TYPE":0,"CLASSIFICATION_TYPE":"U","NORAD_CAT_ID":61602,"ELEMENT_SET_NO":999,"REV_AT_EPOCH":4748,"BSTAR":0.0014791837,"MEAN_MOTION_DOT":5.37e-6,"MEAN_MOTION_DDOT":0},{"OBJECT_NAME":"ONEWEB-0697","OBJECT_ID":"2024-188K","EPOCH":"2025-09-08T05:33:48.849696","MEAN_MOTION":13.11415866,"ECCENTRICITY":0.00011461,"INCLINATION":87.8769,"RA_OF_ASC_NODE":77.2558,"ARG_OF_PERICENTER":115.6739,"MEAN_ANOMALY":244.4507,"EPHEMERIS_TYPE":0,"CLASSIFICATION_TYPE":"U","NORAD_CAT_ID":61603,"ELEMENT_SET_NO":999,"REV_AT_EPOCH":4749,"BSTAR":-0.0011906009,"MEAN_MOTION_DOT":-4.09e-6,"MEAN_MOTION_DDOT":0},{"OBJECT_NAME":"ONEWEB-0698","OBJECT_ID":"2024-188L","EPOCH":"2025-09-08T05:02:05.443008","MEAN_MOTION":13.11416078,"ECCENTRICITY":6.115e-5,"INCLINATION":87.8769,"RA_OF_ASC_NODE":77.2745,"ARG_OF_PERICENTER":77.1133,"MEAN_ANOMALY":283.0064,"EPHEMERIS_TYPE":0,"CLASSIFICATION_TYPE":"U","NORAD_CAT_ID":61604,"ELEMENT_SET_NO":999,"REV_AT_EPOCH":4751,"BSTAR":0.0012471572,"MEAN_MOTION_DOT":4.55e-6,"MEAN_MOTION_DDOT":0},{"OBJECT_NAME":"ONEWEB-0699","OBJECT_ID":"2024-188M","EPOCH":"2025-09-08T01:47:22.006464","MEAN_MOTION":13.10375535,"ECCENTRICITY":0.00011455,"INCLINATION":87.8755,"RA_OF_ASC_NODE":92.5155,"ARG_OF_PERICENTER":96.5015,"MEAN_ANOMALY":263.6242,"EPHEMERIS_TYPE":0,"CLASSIFICATION_TYPE":"U","NORAD_CAT_ID":61605,"ELEMENT_SET_NO":999,"REV_AT_EPOCH":4636,"BSTAR":0.00082857658,"MEAN_MOTION_DOT":3.02e-6,"MEAN_MOTION_DDOT":0},{"OBJECT_NAME":"ONEWEB-0700","OBJECT_ID":"2024-188N","EPOCH":"2025-09-08T01:49:45.496128","MEAN_MOTION":13.10375161,"ECCENTRICITY":0.00016853,"INCLINATION":87.8739,"RA_OF_ASC_NODE":92.401,"ARG_OF_PERICENTER":108.1931,"MEAN_ANOMALY":251.938,"EPHEMERIS_TYPE":0,"CLASSIFICATION_TYPE":"U","NORAD_CAT_ID":61606,"ELEMENT_SET_NO":999,"REV_AT_EPOCH":4635,"BSTAR":0.0008729018,"MEAN_MOTION_DOT":3.17e-6,"MEAN_MOTION_DDOT":0},{"OBJECT_NAME":"ONEWEB-0701","OBJECT_ID":"2024-188P","EPOCH":"2025-09-08T02:13:39.515808","MEAN_MOTION":13.10371282,"ECCENTRICITY":0.000104,"INCLINATION":87.8741,"RA_OF_ASC_NODE":92.5172,"ARG_OF_PERICENTER":110.2967,"MEAN_ANOMALY":249.8272,"EPHEMERIS_TYPE":0,"CLASSIFICATION_TYPE":"U","NORAD_CAT_ID":61607,"ELEMENT_SET_NO":999,"REV_AT_EPOCH":4636,"BSTAR":0.001857522,"MEAN_MOTION_DOT":6.61e-6,"MEAN_MOTION_DDOT":0},{"OBJECT_NAME":"ONEWEB-0702","OBJECT_ID":"2024-188Q","EPOCH":"2025-09-08T06:07:59.301408","MEAN_MOTION":13.11422164,"ECCENTRICITY":0.00014029,"INCLINATION":87.871,"RA_OF_ASC_NODE":77.1966,"ARG_OF_PERICENTER":123.1739,"MEAN_ANOMALY":236.9524,"EPHEMERIS_TYPE":0,"CLASSIFICATION_TYPE":"U","NORAD_CAT_ID":61608,"ELEMENT_SET_NO":999,"REV_AT_EPOCH":4753,"BSTAR":-0.00021047441,"MEAN_MOTION_DOT":-6.2e-7,"MEAN_MOTION_DDOT":0},{"OBJECT_NAME":"ONEWEB-0704","OBJECT_ID":"2024-188R","EPOCH":"2025-09-08T01:56:55.971168","MEAN_MOTION":13.10374653,"ECCENTRICITY":0.00014312,"INCLINATION":87.8768,"RA_OF_ASC_NODE":92.469,"ARG_OF_PERICENTER":121.2024,"MEAN_ANOMALY":238.9243,"EPHEMERIS_TYPE":0,"CLASSIFICATION_TYPE":"U","NORAD_CAT_ID":61609,"ELEMENT_SET_NO":999,"REV_AT_EPOCH":4634,"BSTAR":0.0014364603,"MEAN_MOTION_DOT":5.14e-6,"MEAN_MOTION_DDOT":0},{"OBJECT_NAME":"ONEWEB-0705","OBJECT_ID":"2024-188S","EPOCH":"2025-09-08T02:04:06.588768","MEAN_MOTION":13.10374058,"ECCENTRICITY":0.00024394,"INCLINATION":87.8746,"RA_OF_ASC_NODE":92.5022,"ARG_OF_PERICENTER":111.8598,"MEAN_ANOMALY":248.2789,"EPHEMERIS_TYPE":0,"CLASSIFICATION_TYPE":"U","NORAD_CAT_ID":61610,"ELEMENT_SET_NO":999,"REV_AT_EPOCH":3851,"BSTAR":0.0021377955,"MEAN_MOTION_DOT":7.59e-6,"MEAN_MOTION_DDOT":0}]
