ONEWEB-0015             
1 61594U 24188A   25251.24029508 -.00000555  00000+0 -16013-2 0  9992
2 61594  87.8779  77.2763 0002332  84.9419 275.1975 13.11417096 47505
ONEWEB-0687             
1 61595U 24188B   25251.20383869  .00000013  00000+0  72364-6 0  9994
2 61595  87.9030  62.0047 0002275 101.3121 258.8267 13.17650769 48767
ONEWEB-0688             
1 61596U 24188C   25251.23252532 -.00000017  00000+0 -77315-4 0  9995
2 61596  87.9030  61.9989 0003028  84.6067 275.5410 13.17650497 48764
ONEWEB-0689             
1 61597U 24188D   25251.04532185  .00000554  00000+0  15274-2 0  9998
2 61597  87.8744  77.2710 0001835  98.6594 261.4742 13.11417960 47471
ONEWEB-0690             
1 61598U 24188E   25251.20808957  .00000492  00000+0  13528-2 0  9991
2 61598  87.8792  77.2173 0001430  63.5141 296.6134 13.11416064 47679
ONEWEB-0691             
1 61599U 24188F   25251.05041262  .00000489  00000+0  13439-2 0  9990
2 61599  87.8704  77.2090 0002080  83.3891 276.7473 13.11417053 47501
ONEWEB-0692             
1 61600U 24188G   25251.22336563 -.00000074  00000+0 -24387-3 0  9990
2 61600  87.8767  77.2794 0001203 122.1423 237.9822 13.11415913 47514
ONEWEB-0693             
1 61601U 24188H   25251.16839898  .00000040  00000+0  70287-4 0  9995
2 61601  87.9034  62.0301 0001781  62.1747 297.9565 13.17647619 48744
ONEWEB-0695             
1 61602U 24188J   25251.04700999  .00000537  00000+0  14792-2 0  9990
2 61602  87.8771  77.3016 0001692 107.7255 252.4058 13.11415754 47485
ONEWEB-0697             
1 61603U 24188K   25251.23181539 -.00000409  00000+0 -11906-2 0  9999
2 61603  87.8769  77.2558 0001146 115.6739 244.4507 13.11415866 47497
ONEWEB-0698             
1 61604U 24188L   25251.20978522  .00000455  00000+0  12472-2 0  9991
2 61604  87.8769  77.2745 0000611  77.1133 283.0064 13.11416078 47518
ONEWEB-0699             
1 61605U 24188M   25251.07456026  .00000302  00000+0  82858-3 0  9994
2 61605  87.8755  92.5155 0001145  96.5015 263.6242 13.10375535 46361
ONEWEB-0700             
1 61606U 24188N   25251.07622102  .00000317  00000+0  87290-3 0  9996
2 61606  87.8739  92.4010 0001685 108.1931 251.9380 13.10375161 46356
ONEWEB-0701             
1 61607U 24188P   25251.09281847  .00000661  00000+0  18575-2 0  9997
2 61607  87.8741  92.5172 0001040 110.2967 249.8272 13.10371282 46365
ONEWEB-0702             
1 61608U 24188Q   25251.25554747 -.00000062  00000+0 -21047-3 0  9994
2 61608  87.8710  77.1966 0001402 123.1739 236.9524 13.11422164 47538
ONEWEB-0704             
1 61609U 24188R   25251.08120337  .00000514  00000+0  14365-2 0  9994
2 61609  87.8768  92.4690 0001431 121.2024 238.9243 13.10374653 46340
ONEWEB-0705             
1 61610U 24188S   25251.08618737  .00000759  00000+0  21378-2 0  9995
2 61610  87.8746  92.5022 0002439 111.8598 248.2789 13.10374058 38516
